NORAD_CAT_ID,OBJECT_NAME,OBJECT_TYPE,EPOCH,MEAN_MOTION,ECCENTRICITY,INCLINATION,RA_OF_ASC_NODE,ARG_OF_PERICENTER,MEAN_ANOMALY,BSTAR,MEAN_MOTION_DOT,MEAN_MOTION_DDOT,TLE_LINE0,TLE_LINE1,TLE_LINE2,SEMIMAJOR_AXIS,PERIOD,APOGEE,PERIGEE,DECAYED
52610.0,STARLINK-3998,PAYLOAD,2024-02-19 23:24:09,15.08833091,0.0001816,53.2186,45.2327,90.4449,269.6751,1.723e-05,-1.4e-07,0.0,0 STARLINK-3998,1 52610U 22052N   24050.97510938 -.00000014  00000-0  17230-4 0  9991,2 52610  53.2186  45.2327 0001816  90.4449 269.6751 15.08833091 97752,6917.902,95.438,541.023,538.51,0.0
52610.0,STARLINK-3998,PAYLOAD,2024-02-20 05:45:41,15.08838786,0.0001438,53.2174,44.0436,93.8588,266.2568,8.4059e-06,-1.54e-06,0.0,0 STARLINK-3998,1 52610U 22052N   24051.24006570 -.00000154  00000-0  84059-5 0  9993,2 52610  53.2174  44.0436 0001438  93.8588 266.2568 15.08838786 97797,6917.884,95.438,540.744,538.754,0.0
52610.0,STARLINK-3998,PAYLOAD,2024-02-20 16:53:23,15.08840154,0.0001417,53.2175,41.9619,93.8129,266.3025,3.6757e-05,2.97e-06,0.0,0 STARLINK-3998,1 52610U 22052N   24051.70374446  .00000297  00000-0  36757-4 0  9992,2 52610  53.2175  41.9619 0001417  93.8129 266.3025 15.08840154 97864,6917.88,95.438,540.725,538.765,0.0
52610.0,STARLINK-3998,PAYLOAD,2024-02-21 04:01:05,15.0884371,0.0001276,53.2169,39.8798,95.8994,264.2144,0.00014428,2.009e-05,0.0,0 STARLINK-3998,1 52610U 22052N   24052.16741980  .00002009  00000-0  14428-3 0  9997,2 52610  53.2169  39.8798 0001276  95.8994 264.2144 15.08843710 98306,6917.869,95.437,540.617,538.851,0.0
52610.0,STARLINK-3998,PAYLOAD,2024-02-21 05:36:28,15.08847601,0.0001357,53.2179,39.5824,97.7347,262.3799,0.00014326,1.993e-05,0.0,0 STARLINK-3998,1 52610U 22052N   24052.23365804  .00001993  00000-0  14326-3 0  9990,2 52610  53.2179  39.5824 0001357  97.7347 262.3799 15.08847601 97944,6917.857,95.437,540.661,538.783,0.0
52610.0,STARLINK-3998,PAYLOAD,2024-02-22 03:51:52,15.0882534,0.0001225,53.218,35.4183,99.7112,260.4019,0.00034762,5.247e-05,0.0,0 STARLINK-3998,1 52610U 22052N   24053.16102982  .00005247  00000-0  34762-3 0  9991,2 52610  53.2180  35.4183 0001225  99.7112 260.4019 15.08825340 98452,6917.925,95.438,540.638,538.943,0.0
52610.0,STARLINK-3998,PAYLOAD,2024-02-22 05:27:15,15.08844516,0.0001322,53.2188,35.1194,101.3219,258.7922,9.5385e-05,1.231e-05,0.0,0 STARLINK-3998,1 52610U 22052N   24053.22726136  .00001231  00000-0  95385-4 0  9999,2 52610  53.2188  35.1194 0001322 101.3219 258.7922 15.08844516 98465,6917.867,95.437,540.646,538.817,0.0
52610.0,STARLINK-3998,PAYLOAD,2024-02-23 03:42:39,15.08841354,0.0001513,53.2199,30.9563,101.753,258.3632,2.3705e-05,8.9e-07,0.0,0 STARLINK-3998,1 52610U 22052N   24054.15462456  .00000089  00000-0  23705-4 0  9991,2 52610  53.2199  30.9563 0001513 101.7530 258.3632 15.08841354 98609,6917.876,95.437,540.788,538.695,0.0
52610.0,STARLINK-3998,PAYLOAD,2024-02-23 05:18:02,15.08841281,0.0001473,53.2203,30.6583,102.3176,257.7981,4.4048e-05,4.13e-06,0.0,0 STARLINK-3998,1 52610U 22052N   24054.22086403  .00000413  00000-0  44048-4 0  9997,2 52610  53.2203  30.6583 0001473 102.3176 257.7981 15.08841281 98241,6917.876,95.437,540.76,538.722,0.0
52610.0,STARLINK-3998,PAYLOAD,2024-02-23 21:11:54,15.08838762,0.0001519,53.2201,27.691,103.5239,256.5923,5.4506e-05,5.8e-06,0.0,0 STARLINK-3998,1 52610U 22052N   24054.88326619  .00000580  00000-0  54506-4 0  9990,2 52610  53.2201  27.6910 0001519 103.5239 256.5923 15.08838762 98347,6917.884,95.438,540.8,538.698,0.0
52610.0,STARLINK-3998,PAYLOAD,2024-02-24 03:33:27,15.08835217,0.0001543,53.2204,26.5009,103.4039,256.7125,1.8709e-05,1e-07,0.0,0 STARLINK-3998,1 52610U 22052N   24055.14822984  .00000010  00000-0  18709-4 0  9999,2 52610  53.2204  26.5009 0001543 103.4039 256.7125 15.08835217 98754,6917.895,95.438,540.827,538.693,0.0
52610.0,STARLINK-3998,PAYLOAD,2024-02-24 05:08:50,15.0880636,0.0001692,53.2199,26.2042,107.6552,252.4625,0.00048393,7.415e-05,0.0,0 STARLINK-3998,1 52610U 22052N   24055.21447545  .00007415  00000-0  48393-3 0  9990,2 52610  53.2199  26.2042 0001692 107.6552 252.4625 15.08806360 98768,6917.983,95.44,541.019,538.678,0.0
52610.0,STARLINK-3998,PAYLOAD,2024-02-24 14:41:08,15.08838186,0.0001495,53.2199,24.4199,101.8921,258.2239,6.5989e-05,7.62e-06,0.0,0 STARLINK-3998,1 52610U 22052N   24055.61190834  .00000762  00000-0  65989-4 0  9999,2 52610  53.2199  24.4199 0001495 101.8921 258.2239 15.08838186 98450,6917.886,95.438,540.785,538.717,0.0
52610.0,STARLINK-3998,PAYLOAD,2024-02-24 21:02:41,15.08839688,0.0001494,53.2195,23.2303,100.246,259.8701,6.3752e-05,7.27e-06,0.0,0 STARLINK-3998,1 52610U 22052N   24055.87686802  .00000727  00000-0  63752-4 0  9999,2 52610  53.2195  23.2303 0001494 100.2460 259.8701 15.08839688 98493,6917.881,95.438,540.78,538.713,0.0
52610.0,STARLINK-3998,PAYLOAD,2024-02-25 03:24:13,15.08846132,0.0001501,53.2196,22.0413,101.0134,259.1027,0.00011482,1.54e-05,0.0,0 STARLINK-3998,1 52610U 22052N   24056.14182217  .00001540  00000-0  11482-3 0  9997,2 52610  53.2196  22.0413 0001501 101.0134 259.1027 15.08846132 98901,6917.862,95.437,540.765,538.688,0.0
52610.0,STARLINK-3998,PAYLOAD,2024-02-25 14:31:55,15.08844206,0.0001835,53.2204,19.9592,88.252,271.8683,9.5468e-05,1.232e-05,0.0,0 STARLINK-3998,1 52610U 22052N   24056.60550430  .00001232  00000-0  95468-4 0  9999,2 52610  53.2204  19.9592 0001835  88.2520 271.8683 15.08844206 98605,6917.868,95.437,541.002,538.463,0.0
52610.0,STARLINK-3998,PAYLOAD,2024-02-26 03:15:00,15.08838984,0.0001845,53.2201,17.5788,86.1467,273.9736,7.3318e-05,8.79e-06,0.0,0 STARLINK-3998,1 52610U 22052N   24057.13542779  .00000879  00000-0  73318-4 0  9991,2 52610  53.2201  17.5788 0001845  86.1467 273.9736 15.08838984 99059,6917.883,95.438,541.025,538.472,0.0
52610.0,STARLINK-3998,PAYLOAD,2024-02-26 04:50:24,15.08838834,0.0001712,53.2191,17.2824,86.1252,273.9936,7.0818e-05,8.39e-06,0.0,0 STARLINK-3998,1 52610U 22052N   24057.20166773  .00000839  00000-0  70818-4 0  9993,2 52610  53.2191  17.2824 0001712  86.1252 273.9936 15.08838834 98695,6917.884,95.438,540.933,538.565,0.0
52610.0,STARLINK-3998,PAYLOAD,2024-02-27 06:16:33,15.08849272,0.0001429,53.2197,12.5203,91.3704,268.7452,-4.9366e-05,-1.074e-05,0.0,0 STARLINK-3998,1 52610U 22052N   24058.26150441 -.00001074  00000-0 -49366-4 0  9993,2 52610  53.2197  12.5203 0001429  91.3704 268.7452 15.08849272 99228,6917.852,95.437,540.706,538.728,0.0
52610.0,STARLINK-3998,PAYLOAD,2024-02-27 14:13:29,15.08844324,0.0001454,53.2196,11.0376,92.8848,267.2311,-6.8327e-05,-1.375e-05,0.0,0 STARLINK-3998,1 52610U 22052N   24058.59270776 -.00001375  00000-0 -68327-4 0  9995,2 52610  53.2196  11.0376 0001454  92.8848 267.2311 15.08844324 98900,6917.867,95.437,540.738,538.726,0.0
52610.0,STARLINK-3998,PAYLOAD,2024-02-27 20:35:03,15.08829544,0.0001482,53.2199,9.8438,94.7327,265.3835,4.0695e-06,-2.23e-06,0.0,0 STARLINK-3998,1 52610U 22052N   24058.85767513 -.00000223  00000-0  40695-5 0  9993,2 52610  53.2199   9.8438 0001482  94.7327 265.3835 15.08829544 99314,6917.912,95.438,540.803,538.752,0.0
52610.0,STARLINK-3998,PAYLOAD,2024-02-28 02:56:35,15.08836543,0.0001337,53.2176,8.6601,86.5559,273.5586,5.3378e-05,5.62e-06,0.0,0 STARLINK-3998,1 52610U 22052N   24059.12263079  .00000562  00000-0  53378-4 0  9998,2 52610  53.2176   8.6601 0001337  86.5559 273.5586 15.08836543 99358,6917.891,95.438,540.681,538.831,0.0
52610.0,STARLINK-3998,PAYLOAD,2024-02-28 14:04:17,15.08839493,0.0001253,53.2184,6.5776,73.7517,286.3613,7.7712e-05,9.49e-06,0.0,0 STARLINK-3998,1 52610U 22052N   24059.58630811  .00000949  00000-0  77712-4 0  9997,2 52610  53.2184   6.5776 0001253  73.7517 286.3613 15.08839493 99053,6917.882,95.438,540.614,538.88,0.0
52610.0,STARLINK-3998,PAYLOAD,2024-02-29 05:58:08,15.08843729,0.0001393,53.2185,3.6019,102.6095,257.5053,4.3985e-05,4.12e-06,0.0,0 STARLINK-3998,1 52610U 22052N   24060.24870826  .00000412  00000-0  43985-4 0  9994,2 52610  53.2185   3.6019 0001393 102.6095 257.5053 15.08843729 99527,6917.869,95.437,540.698,538.77,0.0
52610.0,STARLINK-3998,PAYLOAD,2024-02-29 20:16:36,15.088297,0.0001153,53.2196,0.923,114.432,245.6793,0.00016239,2.297e-05,0.0,0 STARLINK-3998,1 52610U 22052N   24060.84487252  .00002297  00000-0  16239-3 0  9991,2 52610  53.2196   0.9230 0001153 114.4320 245.6793 15.08829700 99612,6917.912,95.438,540.575,538.979,0.0
52610.0,STARLINK-3998,PAYLOAD,2024-03-01 02:38:08,15.08848463,0.0001493,53.2183,359.7352,106.5316,253.584,7.4765e-05,9.02e-06,0.0,0 STARLINK-3998,1 52610U 22052N   24061.10982507  .00000902  00000-0  74765-4 0  9994,2 52610  53.2183 359.7352 0001493 106.5316 253.5840 15.08848463 99654,6917.855,95.437,540.752,538.687,0.0
52610.0,STARLINK-3998,PAYLOAD,2024-03-01 05:48:55,15.08846938,0.0001467,53.2183,359.1398,108.2937,251.8215,0.0001266,1.728e-05,0.0,0 STARLINK-3998,1 52610U 22052N   24061.24230439  .00001728  00000-0  12660-3 0  9991,2 52610  53.2183 359.1398 0001467 108.2937 251.8215 15.08846938 99301,6917.859,95.437,540.739,538.709,0.0
52610.0,STARLINK-3998,PAYLOAD,2024-03-02 02:28:56,15.08843303,0.0001427,53.2196,355.2713,100.0432,260.0721,6.0562e-05,6.76e-06,0.0,0 STARLINK-3998,1 52610U 22052N   24062.10342734  .00000676  00000-0  60562-4 0  9995,2 52610  53.2196 355.2713 0001427 100.0432 260.0721 15.08843303 99801,6917.87,95.437,540.722,538.748,0.0
52610.0,STARLINK-3998,PAYLOAD,2024-03-03 05:30:29,15.08847084,0.0001443,53.2189,350.217,113.0979,247.0166,-1.2515e-05,-4.87e-06,0.0,0 STARLINK-3998,1 52610U 22052N   24063.22950447 -.00000487  00000-0 -12515-4 0  9992,2 52610  53.2189 350.2170 0001443 113.0979 247.0166 15.08847084 99979,6917.859,95.437,540.722,538.725,0.0
52610.0,STARLINK-3998,PAYLOAD,2024-03-04 11:42:48,15.08842938,7.96e-05,53.2193,344.5671,103.5246,256.5835,6.4549e-05,7.4e-06,0.0,0 STARLINK-3998,1 52610U 22052N   24064.48806350  .00000740  00000-0  64549-4 0  9998,2 52610  53.2193 344.5671 0000796 103.5246 256.5835 15.08842938 99798,6917.871,95.437,540.287,539.186,0.0
